[{"OBJECT_NAME":"COSMOS 2251 DEB","OBJECT_ID":"1993-036AQB","EPOCH":"2026-04-03T15:33:04.824000","MEAN_MOTION":13.6628555,"ECCENTRICITY":0.0342091,"INCLINATION":73.8873,"RA_OF_ASC_NODE":237.8562,"ARG_OF_PERICENTER":267.3443,"MEAN_ANOMALY":88.8477,"EPHEMERIS_TYPE":0,"CLASSIFICATION_TYPE":"U","NORAD_CAT_ID":35706,"ELEMENT_SET_NO":999,"REV_AT_EPOCH":63590,"BSTAR":0.0015835,"MEAN_MOTION_DOT":1.932e-5,"MEAN_MOTION_DDOT":0},{"OBJECT_NAME":"COSMOS 2251 DEB","OBJECT_ID":"1993-036AQG","EPOCH":"2026-04-02T00:48:10.829088","MEAN_MOTION":14.64167681,"ECCENTRICITY":0.00829113,"INCLINATION":74.0482,"RA_OF_ASC_NODE":8.7573,"ARG_OF_PERICENTER":82.2593,"MEAN_ANOMALY":278.7979,"EPHEMERIS_TYPE":0,"CLASSIFICATION_TYPE":"U","NORAD_CAT_ID":35711,"ELEMENT_SET_NO":999,"REV_AT_EPOCH":89385,"BSTAR":0.00031422652,"MEAN_MOTION_DOT":1.706e-5,"MEAN_MOTION_DDOT":0},{"OBJECT_NAME":"COSMOS 2251 DEB","OBJECT_ID":"1993-036AQM","EPOCH":"2026-03-30T23:32:52.991232","MEAN_MOTION":14.60239699,"ECCENTRICITY":0.0089124,"INCLINATION":73.996,"RA_OF_ASC_NODE":347.046,"ARG_OF_PERICENTER":163.2321,"MEAN_ANOMALY":215.8389,"EPHEMERIS_TYPE":0,"CLASSIFICATION_TYPE":"U","NORAD_CAT_ID":35716,"ELEMENT_SET_NO":999,"REV_AT_EPOCH":89207,"BSTAR":0.00012880791,"MEAN_MOTION_DOT":6.24e-6,"MEAN_MOTION_DDOT":0},{"OBJECT_NAME":"COSMOS 2251 DEB","OBJECT_ID":"1993-036AQN","EPOCH":"2026-04-03T11:50:35.546208","MEAN_MOTION":14.39432407,"ECCENTRICITY":0.00792591,"INCLINATION":74.1627,"RA_OF_ASC_NODE":12.8832,"ARG_OF_PERICENTER":200.6549,"MEAN_ANOMALY":159.1398,"EPHEMERIS_TYPE":0,"CLASSIFICATION_TYPE":"U","NORAD_CAT_ID":35717,"ELEMENT_SET_NO":999,"REV_AT_EPOCH":75707,"BSTAR":0.0017994995,"MEAN_MOTION_DOT":5.792e-5,"MEAN_MOTION_DDOT":0},{"OBJECT_NAME":"COSMOS 2251 DEB","OBJECT_ID":"1993-036AQP","EPOCH":"2026-04-02T05:11:20.889600","MEAN_MOTION":14.70942029,"ECCENTRICITY":0.00096941,"INCLINATION":74.03,"RA_OF_ASC_NODE":275.7704,"ARG_OF_PERICENTER":295.1811,"MEAN_ANOMALY":64.8355,"EPHEMERIS_TYPE":0,"CLASSIFICATION_TYPE":"U","NORAD_CAT_ID":35718,"ELEMENT_SET_NO":999,"REV_AT_EPOCH":67463,"BSTAR":0.0020427107,"MEAN_MOTION_DOT":0.00012517,"MEAN_MOTION_DDOT":0},{"OBJECT_NAME":"COSMOS 2251 DEB","OBJECT_ID":"1993-036AQS","EPOCH":"2026-03-29T23:19:49.830528","MEAN_MOTION":14.35428842,"ECCENTRICITY":0.01451697,"INCLINATION":73.9514,"RA_OF_ASC_NODE":340.0948,"ARG_OF_PERICENTER":103.7676,"MEAN_ANOMALY":257.9681,"EPHEMERIS_TYPE":0,"CLASSIFICATION_TYPE":"U","NORAD_CAT_ID":35721,"ELEMENT_SET_NO":999,"REV_AT_EPOCH":59327,"BSTAR":0.0018850546,"MEAN_MOTION_DOT":6.081e-5,"MEAN_MOTION_DDOT":0},{"OBJECT_NAME":"COSMOS 2251 DEB","OBJECT_ID":"1993-036AQV","EPOCH":"2026-04-03T17:02:53.102112","MEAN_MOTION":14.58497583,"ECCENTRICITY":0.00614321,"INCLINATION":74.0297,"RA_OF_ASC_NODE":89.523,"ARG_OF_PERICENTER":215.9574,"MEAN_ANOMALY":143.7451,"EPHEMERIS_TYPE":0,"CLASSIFICATION_TYPE":"U","NORAD_CAT_ID":35724,"ELEMENT_SET_NO":999,"REV_AT_EPOCH":89161,"BSTAR":0.00033778086,"MEAN_MOTION_DOT":1.579e-5,"MEAN_MOTION_DDOT":0},{"OBJECT_NAME":"COSMOS 2251 DEB","OBJECT_ID":"1993-036ARD","EPOCH":"2026-04-03T00:23:23.649216","MEAN_MOTION":14.65326097,"ECCENTRICITY":0.00749795,"INCLINATION":74.0399,"RA_OF_ASC_NODE":1.9717,"ARG_OF_PERICENTER":93.0416,"MEAN_ANOMALY":267.9335,"EPHEMERIS_TYPE":0,"CLASSIFICATION_TYPE":"U","NORAD_CAT_ID":35759,"ELEMENT_SET_NO":999,"REV_AT_EPOCH":67765,"BSTAR":0.00044705655,"MEAN_MOTION_DOT":2.484e-5,"MEAN_MOTION_DDOT":0},{"OBJECT_NAME":"COSMOS 2251 DEB","OBJECT_ID":"1993-036ARJ","EPOCH":"2026-03-24T12:04:14.930976","MEAN_MOTION":14.78548314,"ECCENTRICITY":0.00267021,"INCLINATION":74.0225,"RA_OF_ASC_NODE":143.4217,"ARG_OF_PERICENTER":242.1543,"MEAN_ANOMALY":117.6927,"EPHEMERIS_TYPE":0,"CLASSIFICATION_TYPE":"U","NORAD_CAT_ID":35764,"ELEMENT_SET_NO":999,"REV_AT_EPOCH":67551,"BSTAR":0.00097590043,"MEAN_MOTION_DOT":7.149e-5,"MEAN_MOTION_DDOT":0},{"OBJECT_NAME":"COSMOS 2251 DEB","OBJECT_ID":"1993-036ARR","EPOCH":"2026-04-01T02:49:39.560736","MEAN_MOTION":14.156794,"ECCENTRICITY":0.02083014,"INCLINATION":74.1539,"RA_OF_ASC_NODE":117.6835,"ARG_OF_PERICENTER":24.1283,"MEAN_ANOMALY":336.9445,"EPHEMERIS_TYPE":0,"CLASSIFICATION_TYPE":"U","NORAD_CAT_ID":35771,"ELEMENT_SET_NO":999,"REV_AT_EPOCH":84407,"BSTAR":0.0045399072,"MEAN_MOTION_DOT":0.00010978,"MEAN_MOTION_DDOT":0},{"OBJECT_NAME":"COSMOS 2251 DEB","OBJECT_ID":"1993-036ART","EPOCH":"2026-04-04T01:27:16.879392","MEAN_MOTION":14.62816605,"ECCENTRICITY":0.0048516,"INCLINATION":74.0051,"RA_OF_ASC_NODE":125.2666,"ARG_OF_PERICENTER":256.2958,"MEAN_ANOMALY":103.2806,"EPHEMERIS_TYPE":0,"CLASSIFICATION_TYPE":"U","NORAD_CAT_ID":35773,"ELEMENT_SET_NO":999,"REV_AT_EPOCH":88481,"BSTAR":0.00080696785,"MEAN_MOTION_DOT":4.16e-5,"MEAN_MOTION_DDOT":0},{"OBJECT_NAME":"COSMOS 2251 DEB","OBJECT_ID":"1993-036ARX","EPOCH":"2026-04-03T03:07:42.899232","MEAN_MOTION":13.41413776,"ECCENTRICITY":0.04498316,"INCLINATION":73.7689,"RA_OF_ASC_NODE":144.7725,"ARG_OF_PERICENTER":22.7342,"MEAN_ANOMALY":6.9378,"EPHEMERIS_TYPE":0,"CLASSIFICATION_TYPE":"U","NORAD_CAT_ID":35777,"ELEMENT_SET_NO":999,"REV_AT_EPOCH":81178,"BSTAR":0.00058363068,"MEAN_MOTION_DOT":5.69e-6,"MEAN_MOTION_DDOT":0},{"OBJECT_NAME":"COSMOS 2251 DEB","OBJECT_ID":"1993-036ASE","EPOCH":"2026-04-01T16:43:35.753376","MEAN_MOTION":14.50310733,"ECCENTRICITY":0.00413211,"INCLINATION":74.0357,"RA_OF_ASC_NODE":243.1818,"ARG_OF_PERICENTER":343.8854,"MEAN_ANOMALY":16.0989,"EPHEMERIS_TYPE":0,"CLASSIFICATION_TYPE":"U","NORAD_CAT_ID":35784,"ELEMENT_SET_NO":999,"REV_AT_EPOCH":67300,"BSTAR":0.00028955303,"MEAN_MOTION_DOT":1.113e-5,"MEAN_MOTION_DDOT":0},{"OBJECT_NAME":"COSMOS 2251 DEB","OBJECT_ID":"1993-036ASG","EPOCH":"2026-04-02T23:30:12.527424","MEAN_MOTION":14.67649585,"ECCENTRICITY":0.00364994,"INCLINATION":74.0144,"RA_OF_ASC_NODE":188.8317,"ARG_OF_PERICENTER":288.4312,"MEAN_ANOMALY":71.2891,"EPHEMERIS_TYPE":0,"CLASSIFICATION_TYPE":"U","NORAD_CAT_ID":35786,"ELEMENT_SET_NO":999,"REV_AT_EPOCH":75039,"BSTAR":0.0017052346,"MEAN_MOTION_DOT":9.776e-5,"MEAN_MOTION_DDOT":0},{"OBJECT_NAME":"COSMOS 2251 DEB","OBJECT_ID":"1993-036ASK","EPOCH":"2026-03-31T16:41:47.115744","MEAN_MOTION":14.36073688,"ECCENTRICITY":0.00475569,"INCLINATION":74.0362,"RA_OF_ASC_NODE":84.3631,"ARG_OF_PERICENTER":160.2644,"MEAN_ANOMALY":200.0364,"EPHEMERIS_TYPE":0,"CLASSIFICATION_TYPE":"U","NORAD_CAT_ID":35789,"ELEMENT_SET_NO":999,"REV_AT_EPOCH":62791,"BSTAR":0.00012738632,"MEAN_MOTION_DOT":3.49e-6,"MEAN_MOTION_DDOT":0},{"OBJECT_NAME":"COSMOS 2251 DEB","OBJECT_ID":"1993-036ASP","EPOCH":"2026-04-03T13:45:59.217984","MEAN_MOTION":14.82171128,"ECCENTRICITY":0.0006321,"INCLINATION":74.0409,"RA_OF_ASC_NODE":199.8026,"ARG_OF_PERICENTER":263.3825,"MEAN_ANOMALY":114.5374,"EPHEMERIS_TYPE":0,"CLASSIFICATION_TYPE":"U","NORAD_CAT_ID":35793,"ELEMENT_SET_NO":999,"REV_AT_EPOCH":67452,"BSTAR":0.0030159,"MEAN_MOTION_DOT":0.00024092,"MEAN_MOTION_DDOT":0}]
