COSMOS 2251 DEB         
1 35706U 93036AQB 26093.64797250  .00001932  00000+0  15835-2 0  9990
2 35706  73.8873 237.8562 0342091 267.3443  88.8477 13.66285550635906
COSMOS 2251 DEB         
1 35711U 93036AQG 26092.03345867  .00001706  00000+0  31423-3 0  9992
2 35711  74.0482   8.7573 0082911  82.2593 278.7979 14.64167681893850
COSMOS 2251 DEB         
1 35716U 93036AQM 26089.98116888  .00000624  00000+0  12881-3 0  9991
2 35716  73.9960 347.0460 0089124 163.2321 215.8389 14.60239699892075
COSMOS 2251 DEB         
1 35717U 93036AQN 26093.49346697  .00005792  00000+0  17995-2 0  9997
2 35717  74.1627  12.8832 0079259 200.6549 159.1398 14.39432407757073
COSMOS 2251 DEB         
1 35718U 93036AQP 26092.21621400  .00012517  00000+0  20427-2 0  9992
2 35718  74.0300 275.7704 0009694 295.1811  64.8355 14.70942029674632
COSMOS 2251 DEB         
1 35721U 93036AQS 26088.97210452  .00006081  00000+0  18851-2 0  9992
2 35721  73.9514 340.0948 0145169 103.7676 257.9681 14.35428842593278
COSMOS 2251 DEB         
1 35724U 93036AQV 26093.71033683  .00001579  00000+0  33778-3 0  9995
2 35724  74.0297  89.5230 0061432 215.9574 143.7451 14.58497583891612
COSMOS 2251 DEB         
1 35759U 93036ARD 26093.01624594  .00002484  00000+0  44706-3 0  9992
2 35759  74.0399   1.9717 0074979  93.0416 267.9335 14.65326097677656
COSMOS 2251 DEB         
1 35764U 93036ARJ 26083.50295059  .00007149  00000+0  97590-3 0  9993
2 35764  74.0225 143.4217 0026702 242.1543 117.6927 14.78548314675519
COSMOS 2251 DEB         
1 35771U 93036ARR 26091.11781899  .00010978  00000+0  45399-2 0  9992
2 35771  74.1539 117.6835 0208301  24.1283 336.9445 14.15679400844073
COSMOS 2251 DEB         
1 35773U 93036ART 26094.06061203  .00004160  00000+0  80697-3 0  9998
2 35773  74.0051 125.2666 0048516 256.2958 103.2806 14.62816605884811
COSMOS 2251 DEB         
1 35777U 93036ARX 26093.13035763  .00000569  00000+0  58363-3 0  9995
2 35777  73.7689 144.7725 0449831  22.7342   6.9378 13.41413776811785
COSMOS 2251 DEB         
1 35784U 93036ASE 26091.69694159  .00001113  00000+0  28955-3 0  9992
2 35784  74.0357 243.1818 0041321 343.8854  16.0989 14.50310733673004
COSMOS 2251 DEB         
1 35786U 93036ASG 26092.97931166  .00009776  00000+0  17052-2 0  9996
2 35786  74.0144 188.8317 0036499 288.4312  71.2891 14.67649585750393
COSMOS 2251 DEB         
1 35789U 93036ASK 26090.69568421  .00000349  00000+0  12739-3 0  9991
2 35789  74.0362  84.3631 0047556 160.2644 200.0364 14.36073688627917
COSMOS 2251 DEB         
1 35793U 93036ASP 26093.57360206  .00024092  00000+0  30159-2 0  9993
2 35793  74.0409 199.8026 0006321 263.3825 114.5374 14.82171128674523
